     2.100          NAVIGATION                              RINEX VERSION / TYPE
fic2rin                                 10/28/2016 00:22:26 PGM / RUN BY / DATE
                                                            END OF HEADER
18 16 10 28  0  0  0.0  .570851843804D-03  .341060513165D-11  .000000000000D+00
     .520000000000D+02 -.377812500000D+02  .522950354410D-08 -.144306877521D+01
    -.166893005371D-05  .172667625593D-01  .991858541965D-05  .515372764587D+04
     .432000000000D+06  .221654772758D-06  .236967826611D+01  .426545739174D-06
     .925239535415D+00  .166281250000D+03 -.185374351254D+01 -.830963184381D-08
    -.298226708054D-09  .100000000000D+01  .192000000000D+04  .000000000000D+00
     .240000000000D+01  .000000000000D+00 -.111758708954D-07  .520000000000D+02
     .424806000000D+06  .400000000000D+01
19 16 10 28  0  0  0.0 -.521027483046D-03  .568434188608D-12  .000000000000D+00
     .600000000000D+02  .479062500000D+02  .412302888356D-08  .123520114343D+00
     .265985727310D-05  .103617811110D-01  .899843871593D-05  .515363212585D+04
     .432000000000D+06 -.484287738800D-07  .407269021624D+00  .186264514923D-06
     .975310895419D+00  .215500000000D+03  .881329604538D+00 -.799176146037D-08
     .495020619596D-09  .100000000000D+01  .192000000000D+04  .000000000000D+00
     .240000000000D+01  .000000000000D+00 -.149011611938D-07  .600000000000D+02
     .424806000000D+06  .400000000000D+01
21 16 10 28  0  0  0.0 -.532916281372D-03  .341060513165D-12  .000000000000D+00
     .830000000000D+02 -.104062500000D+02  .554773108527D-08 -.488631345000D+00
    -.357627868652D-06  .233713338384D-01  .408105552197D-05  .515379515266D+04
     .432000000000D+06 -.236555933952D-06  .132786213758D+01  .227242708206D-06
     .937267110972D+00  .294125000000D+03 -.174701681854D+01 -.912073705817D-08
     .112504686272D-09  .100000000000D+01  .192000000000D+04  .000000000000D+00
     .240000000000D+01  .000000000000D+00 -.977888703346D-08  .830000000000D+02
     .424806000000D+06  .400000000000D+01
22 16 10 28  0  0  0.0  .206682365388D-03 -.105728759081D-10  .000000000000D+00
     .670000000000D+02 -.473437500000D+02  .523557522558D-08  .276996202360D+01
    -.256113708019D-05  .734526431188D-02  .107679516077D-04  .515369573593D+04
     .432000000000D+06  .987201929092D-07  .236999805415D+01 -.651925802231D-07
     .923198725195D+00  .153343750000D+03 -.185252848886D+01 -.820819904729D-08
    -.331442377334D-09  .100000000000D+01  .192000000000D+04  .000000000000D+00
     .240000000000D+01  .000000000000D+00 -.176951289177D-07  .670000000000D+02
     .424806000000D+06  .400000000000D+01
23 16 10 28  0  0  0.0 -.194806139916D-03 -.125055521494D-11  .000000000000D+00
     .140000000000D+02  .926250000000D+02  .499735101687D-08  .203252877032D+01
     .477768480778D-05  .111220235704D-01  .924430787563D-05  .515359841919D+04
     .432000000000D+06 -.264495611191D-06 -.283374571268D+01 -.316649675369D-07
     .945681821615D+00  .195687500000D+03 -.252454977843D+01 -.828391648694D-08
     .434303804782D-09  .100000000000D+01  .192000000000D+04  .000000000000D+00
     .240000000000D+01  .000000000000D+00 -.200234353542D-07  .140000000000D+02
     .424806000000D+06  .400000000000D+01
24 16 10 28  0  0  0.0 -.252425670624D-04 -.568434188608D-12  .000000000000D+00
     .460000000000D+02 -.212500000000D+01  .535593738200D-08  .146798313614D+01
    -.931322574615D-08  .486245448701D-02  .236183404922D-05  .515371871567D+04
     .432000000000D+06  .484287738800D-07 -.180875030253D+01  .132247805595D-06
     .947473369612D+00  .325750000000D+03  .393694148336D+00 -.875357890741D-08
    -.125005206969D-09  .100000000000D+01  .192000000000D+04  .000000000000D+00
     .240000000000D+01  .000000000000D+00  .232830643654D-08  .460000000000D+02
     .424806000000D+06  .400000000000D+01
25 16 10 28  0  0  0.0 -.271445605904D-03 -.682121026330D-11  .000000000000D+00
     .250000000000D+02 -.655937500000D+02  .399945230753D-08 -.628274378973D+00
    -.353902578354D-05  .564339815173D-02  .967830419540D-05  .515368676567D+04
     .432000000000D+06  .242143869400D-07 -.731745385367D+00  .135973095894D-06
     .978196935817D+00  .201750000000D+03  .770345459043D+00 -.787675666996D-08
    -.418231706744D-09  .100000000000D+01  .192000000000D+04  .000000000000D+00
     .240000000000D+01  .000000000000D+00  .558793544769D-08  .250000000000D+02
     .424806000000D+06  .400000000000D+01
26 16 10 28  0  0  0.0 -.493106897920D-03 -.534328137292D-11  .000000000000D+00
     .940000000000D+02 -.614062500000D+02  .434910972931D-08 -.990048175618D+00
    -.315345823765D-05  .113067415077D-02  .101253390312D-04  .515360194588D+04
     .432000000000D+06 -.745058059692D-08 -.743425563230D+00 -.260770320892D-07
     .960077743046D+00  .186375000000D+03 -.182331461900D+00 -.795354558281D-08
    -.382873091058D-09  .100000000000D+01  .192000000000D+04  .000000000000D+00
     .240000000000D+01  .000000000000D+00  .745058059692D-08  .940000000000D+02
     .424806000000D+06  .400000000000D+01
27 16 10 28  0  0  0.0  .157626811415D-03  .511590769747D-11  .000000000000D+00
     .350000000000D+02  .572812500000D+02  .408874174108D-08 -.295436648577D+01
     .295974314213D-05  .387205590960D-02  .923499464989D-05  .515365480232D+04
     .432000000000D+06  .260770320892D-07  .308163855782D+00  .000000000000D+00
     .973141428869D+00  .208437500000D+03  .324913733824D+00 -.784639826255D-08
     .498235039204D-09  .100000000000D+01  .192000000000D+04  .000000000000D+00
     .240000000000D+01  .000000000000D+00  .139698386192D-08  .350000000000D+02
     .424806000000D+06  .400000000000D+01
28 16 10 28  0  0  0.0  .562564935535D-03  .295585778076D-11  .000000000000D+00
     .120000000000D+03 -.630625000000D+02  .354336188096D-08 -.212533462700D+01
    -.321492552757D-05  .200197618688D-01  .110715627670D-04  .515363685799D+04
     .432000000000D+06  .337138772011D-06 -.655422434415D+00  .987201929092D-07
     .989396445613D+00  .177312500000D+03 -.160684149743D+01 -.727351725690D-08
    -.331799535068D-09  .100000000000D+01  .192000000000D+04  .000000000000D+00
     .485000000000D+01  .000000000000D+00 -.111758708954D-07  .120000000000D+03
     .424806000000D+06  .400000000000D+01
29 16 10 28  0  0  0.0  .645931810141D-03 -.159161572810D-11  .000000000000D+00
     .106000000000D+03  .494687500000D+02  .401230998596D-08 -.897426744626D+00
     .261887907982D-05  .492403283715D-03  .911764800549D-05  .515372963715D+04
     .432000000000D+06 -.149011611938D-07  .368807316591D+00 -.298023223877D-07
     .979203246443D+00  .215812500000D+03 -.101476482903D-02 -.781639701288D-08
     .400730977768D-09  .100000000000D+01  .192000000000D+04  .000000000000D+00
     .240000000000D+01  .000000000000D+00 -.102445483208D-07  .106000000000D+03
     .424806000000D+06  .400000000000D+01
30 16 10 28  0  0  0.0  .155461486429D-03  .113686837722D-11  .000000000000D+00
     .630000000000D+02 -.176250000000D+02  .522914638636D-08  .502208586752D+00
    -.103004276752D-05  .238963251468D-02  .257603824139D-05  .515375212097D+04
     .432000000000D+06 -.745058059692D-08 -.171692349353D+01  .745058059692D-08
     .950152879624D+00  .320968750000D+03 -.312053264292D+01 -.866857536667D-08
    -.242152943785D-09  .100000000000D+01  .192000000000D+04  .000000000000D+00
     .240000000000D+01  .000000000000D+00  .372529029846D-08  .630000000000D+02
     .424806000000D+06  .400000000000D+01
31 16 10 28  0  0  0.0  .240069814026D-03 -.216004991671D-11  .000000000000D+00
     .810000000000D+02 -.204375000000D+02  .480877173322D-08  .357028870131D+00
    -.120513141155D-05  .841080071405D-02  .304356217384D-05  .515357480431D+04
     .432000000000D+06  .763684511185D-07 -.174886901765D+01 -.800937414169D-07
     .969177115443D+00  .323812500000D+03 -.367186701794D+00 -.847356724380D-08
    -.207865801302D-09  .100000000000D+01  .192000000000D+04  .000000000000D+00
     .240000000000D+01  .000000000000D+00 -.135041773319D-07  .810000000000D+02
     .424806000000D+06  .400000000000D+01
32 16 10 28  0  0  0.0 -.172768253833D-03 -.164845914696D-10  .000000000000D+00
     .105000000000D+03  .905625000000D+02  .458983404215D-08 -.244864111125D+01
     .475719571114D-05  .604657456279D-03  .861100852489D-05  .515366195488D+04
     .432000000000D+06  .130385160446D-07 -.283539215676D+01  .745058059692D-08
     .959334640641D+00  .212875000000D+03 -.244819832545D+01 -.808426531353D-08
     .360729311538D-09  .100000000000D+01  .192000000000D+04  .000000000000D+00
     .240000000000D+01  .000000000000D+00  .465661287308D-09  .105000000000D+03
     .424806000000D+06  .400000000000D+01
28 16 10 27 23 59 44.0  .562564469874D-03  .295585778076D-11  .000000000000D+00
     .000000000000D+00 -.630625000000D+02  .354336188096D-08 -.212766835292D+01
    -.321492552757D-05  .200197607046D-01  .110715627670D-04  .515363685989D+04
     .431984000000D+06  .337138772011D-06 -.655422312993D+00  .987201929092D-07
     .989396458780D+00  .177312500000D+03 -.160684154132D+01 -.727351725690D-08
    -.331799535068D-09  .100000000000D+01  .192000000000D+04  .000000000000D+00
     .240000000000D+01  .000000000000D+00 -.111758708954D-07  .000000000000D+00
     .426456000000D+06  .400000000000D+01
32 16 10 27 23 59 44.0 -.172757077962D-03 -.163709046319D-10  .000000000000D+00
     .100000000000D+02  .905625000000D+02  .458983404215D-08 -.245096515119D+01
     .475719571114D-05  .604657107033D-03  .861100852489D-05  .515366194916D+04
     .431984000000D+06  .130385160446D-07 -.283539203241D+01  .745058059692D-08
     .959334611383D+00  .212875000000D+03 -.244820806994D+01 -.808426531353D-08
     .360729311538D-09  .100000000000D+01  .192000000000D+04  .000000000000D+00
     .240000000000D+01  .000000000000D+00  .465661287308D-09  .100000000000D+02
     .427086000000D+06  .400000000000D+01
